{"type": "FeatureCollection", "features": [{"type": "Feature", "geometry": {"type": "Point", "coordinates": [34.753301, 32.093666]}, "properties": {"מזהה": 1, "מפעיל": "הוט מובייל", "דור": "4G", "רשות מקומית": "תל אביב-יפו", "רחוב": "דיזנגוף", "מספר": 18, "סטטוס": "פעיל"}}, {"type": "Feature", "geometry": {"type": "Point", "coordinates": [34.792402, 32.099488]}, "properties": {"מזהה": 2, "מפעיל": "פרטנר", "דור": "3G", "רשות מקומית": "תל אביב-יפו", "רחוב": "דיזנגוף", "מספר": 55, "סטטוס": "פעיל"}}, {"type": "Feature", "geometry": {"type": "Point", "coordinates": [34.757422, 32.057207]}, "properties": {"מזהה": 3, "מפעיל": "פלאפון", "דור": "4G", "רשות מקומית": "תל אביב-יפו", "רחוב": "דיזנגוף", "מספר": 4, "סטטוס": "פעיל"}}, {"type": "Feature", "geometry": {"type": "Point", "coordinates": [34.794761, 32.088975]}, "properties": {"מזהה": 4, "מפעיל": "פרטנר", "דור": "4G", "רשות מקומית": "תל אביב-יפו", "רחוב": "דיזנגוף", "מספר": 58, "סטטוס": "פעיל"}}, {"type": "Feature", "geometry": {"type": "Point", "coordinates": [34.800366, 32.090656]}, "properties": {"מזהה": 5, "מפעיל": "סלקום", "דור": "5G", "רשות מקומית": "תל אביב-יפו", "רחוב": "דיזנגוף", "מספר": 21, "סטטוס": "פעיל"}}, {"type": "Feature", "geometry": {"type": "Point", "coordinates": [34.772215, 32.097188]}, "properties": {"מזהה": 6, "מפעיל": "פלאפון", "דור": "4G", "רשות מקומית": "תל אביב-יפו", "רחוב": "דיזנגוף", "מספר": 98, "סטטוס": "פעיל"}}, {"type": "Feature", "geometry": {"type": "Point", "coordinates": [35.189265, 31.758496]}, "properties": {"מזהה": 7, "מפעיל": "סלקום", "דור": "4G", "רשות מקומית": "ירושלים", "רחוב": "יפו", "מספר": 45, "סטטוס": "פעיל"}}, {"type": "Feature", "geometry": {"type": "Point", "coordinates": [35.232128, 31.774524]}, "properties": {"מזהה": 8, "מפעיל": "גולן טלקום", "דור": "4G", "רשות מקומית": "ירושלים", "רחוב": "יפו", "מספר": 119, "סטטוס": "פעיל"}}, {"type": "Feature", "geometry": {"type": "Point", "coordinates": [35.216822, 31.761012]}, "properties": {"מזהה": 9, "מפעיל": "פרטנר", "דור": "5G", "רשות מקומית": "ירושלים", "רחוב": "יפו", "מספר": 47, "סטטוס": "פעיל"}}, {"type": "Feature", "geometry": {"type": "Point", "coordinates": [35.225974, 31.772941]}, "properties": {"מזהה": 10, "מפעיל": "סלקום", "דור": "4G", "רשות מקומית": "ירושלים", "רחוב": "יפו", "מספר": 99, "סטטוס": "פעיל"}}, {"type": "Feature", "geometry": {"type": "Point", "coordinates": [35.188488, 31.755663]}, "properties": {"מזהה": 11, "מפעיל": "פלאפון", "דור": "5G", "רשות מקומית": "ירושלים", "רחוב": "יפו", "מספר": 49, "סטטוס": "פעיל"}}, {"type": "Feature", "geometry": {"type": "Point", "coordinates": [35.221841, 31.754978]}, "properties": {"מזהה": 12, "מפעיל": "הוט מובייל", "דור": "3G", "רשות מקומית": "ירושלים", "רחוב": "יפו", "מספר": 46, "סטטוס": "פעיל"}}, {"type": "Feature", "geometry": {"type": "Point", "coordinates": [34.975619, 32.77657]}, "properties": {"מזהה": 13, "מפעיל": "סלקום", "דור": "4G", "רשות מקומית": "חיפה", "רחוב": "הרצל", "מספר": 22, "סטטוס": "פעיל"}}, {"type": "Feature", "geometry": {"type": "Point", "coordinates": [34.974289, 32.796048]}, "properties": {"מזהה": 14, "מפעיל": "גולן טלקום", "דור": "4G", "רשות מקומית": "חיפה", "רחוב": "הרצל", "מספר": 119, "סטטוס": "פעיל"}}, {"type": "Feature", "geometry": {"type": "Point", "coordinates": [34.993017, 32.8024]}, "properties": {"מזהה": 15, "מפעיל": "הוט מובייל", "דור": "5G", "רשות מקומית": "חיפה", "רחוב": "הרצל", "מספר": 100, "סטטוס": "פעיל"}}, {"type": "Feature", "geometry": {"type": "Point", "coordinates": [35.008908, 32.767356]}, "properties": {"מזהה": 16, "מפעיל": "הוט מובייל", "דור": "4G", "רשות מקומית": "חיפה", "רחוב": "הרצל", "מספר": 9, "סטטוס": "פעיל"}}, {"type": "Feature", "geometry": {"type": "Point", "coordinates": [35.016175, 32.776659]}, "properties": {"מזהה": 17, "מפעיל": "הוט מובייל", "דור": "4G", "רשות מקומית": "חיפה", "רחוב": "הרצל", "מספר": 64, "סטטוס": "פעיל"}}, {"type": "Feature", "geometry": {"type": "Point", "coordinates": [35.014473, 32.787738]}, "properties": {"מזהה": 18, "מפעיל": "גולן טלקום", "דור": "3G", "רשות מקומית": "חיפה", "רחוב": "הרצל", "מספר": 18, "סטטוס": "פעיל"}}, {"type": "Feature", "geometry": {"type": "Point", "coordinates": [34.795182, 31.237798]}, "properties": {"מזהה": 19, "מפעיל": "הוט מובייל", "דור": "5G", "רשות מקומית": "באר שבע", "רחוב": "רגר", "מספר": 55, "סטטוס": "פעיל"}}, {"type": "Feature", "geometry": {"type": "Point", "coordinates": [34.785464, 31.276869]}, "properties": {"מזהה": 20, "מפעיל": "פלאפון", "דור": "5G", "רשות מקומית": "באר שבע", "רחוב": "רגר", "מספר": 18, "סטטוס": "פעיל"}}, {"type": "Feature", "geometry": {"type": "Point", "coordinates": [34.766955, 31.253572]}, "properties": {"מזהה": 21, "מפעיל": "סלקום", "דור": "5G", "רשות מקומית": "באר שבע", "רחוב": "רגר", "מספר": 20, "סטטוס": "פעיל"}}, {"type": "Feature", "geometry": {"type": "Point", "coordinates": [34.809025, 31.260647]}, "properties": {"מזהה": 22, "מפעיל": "גולן טלקום", "דור": "4G", "רשות מקומית": "באר שבע", "רחוב": "רגר", "מספר": 50, "סטטוס": "פעיל"}}, {"type": "Feature", "geometry": {"type": "Point", "coordinates": [34.821267, 31.245897]}, "properties": {"מזהה": 23, "מפעיל": "פרטנר", "דור": "4G", "רשות מקומית": "באר שבע", "רחוב": "רגר", "מספר": 71, "סטטוס": "פעיל"}}, {"type": "Feature", "geometry": {"type": "Point", "coordinates": [34.762189, 31.274647]}, "properties": {"מזהה": 24, "מפעיל": "סלקום", "דור": "4G", "רשות מקומית": "באר שבע", "רחוב": "רגר", "מספר": 69, "סטטוס": "פעיל"}}, {"type": "Feature", "geometry": {"type": "Point", "coordinates": [34.869316, 32.336553]}, "properties": {"מזהה": 25, "מפעיל": "הוט מובייל", "דור": "3G", "רשות מקומית": "נתניה", "רחוב": "הרצל", "מספר": 56, "סטטוס": "פעיל"}}, {"type": "Feature", "geometry": {"type": "Point", "coordinates": [34.823395, 32.300989]}, "properties": {"מזהה": 26, "מפעיל": "הוט מובייל", "דור": "5G", "רשות מקומית": "נתניה", "רחוב": "הרצל", "מספר": 98, "סטטוס": "פעיל"}}, {"type": "Feature", "geometry": {"type": "Point", "coordinates": [34.877958, 32.302219]}, "properties": {"מזהה": 27, "מפעיל": "הוט מובייל", "דור": "5G", "רשות מקומית": "נתניה", "רחוב": "הרצל", "מספר": 65, "סטטוס": "פעיל"}}, {"type": "Feature", "geometry": {"type": "Point", "coordinates": [34.83237, 32.328038]}, "properties": {"מזהה": 28, "מפעיל": "פלאפון", "דור": "4G", "רשות מקומית": "נתניה", "רחוב": "הרצל", "מספר": 100, "סטטוס": "פעיל"}}, {"type": "Feature", "geometry": {"type": "Point", "coordinates": [34.87831, 32.346846]}, "properties": {"מזהה": 29, "מפעיל": "פרטנר", "דור": "4G", "רשות מקומית": "נתניה", "רחוב": "הרצל", "מספר": 3, "סטטוס": "פעיל"}}, {"type": "Feature", "geometry": {"type": "Point", "coordinates": [34.844979, 32.298212]}, "properties": {"מזהה": 30, "מפעיל": "הוט מובייל", "דור": "4G", "רשות מקומית": "נתניה", "רחוב": "הרצל", "מספר": 31, "סטטוס": "פעיל"}}, {"type": "Feature", "geometry": {"type": "Point", "coordinates": [34.819317, 31.995681]}, "properties": {"מזהה": 31, "מפעיל": "סלקום", "דור": "5G", "רשות מקומית": "ראשון לציון", "רחוב": "רוטשילד", "מספר": 105, "סטטוס": "פעיל"}}, {"type": "Feature", "geometry": {"type": "Point", "coordinates": [34.808136, 31.947153]}, "properties": {"מזהה": 32, "מפעיל": "פלאפון", "דור": "3G", "רשות מקומית": "ראשון לציון", "רחוב": "רוטשילד", "מספר": 61, "סטטוס": "פעיל"}}, {"type": "Feature", "geometry": {"type": "Point", "coordinates": [34.772408, 31.999811]}, "properties": {"מזהה": 33, "מפעיל": "פרטנר", "דור": "5G", "רשות מקומית": "ראשון לציון", "רחוב": "רוטשילד", "מספר": 55, "סטטוס": "פעיל"}}, {"type": "Feature", "geometry": {"type": "Point", "coordinates": [34.818235, 32.000862]}, "properties": {"מזהה": 34, "מפעיל": "פלאפון", "דור": "5G", "רשות מקומית": "ראשון לציון", "רחוב": "רוטשילד", "מספר": 52, "סטטוס": "פעיל"}}, {"type": "Feature", "geometry": {"type": "Point", "coordinates": [34.801493, 32.002709]}, "properties": {"מזהה": 35, "מפעיל": "גולן טלקום", "דור": "5G", "רשות מקומית": "ראשון לציון", "רחוב": "רוטשילד", "מספר": 58, "סטטוס": "פעיל"}}, {"type": "Feature", "geometry": {"type": "Point", "coordinates": [34.775982, 31.95026]}, "properties": {"מזהה": 36, "מפעיל": "הוט מובייל", "דור": "2G", "רשות מקומית": "ראשון לציון", "רחוב": "רוטשילד", "מספר": 71, "סטטוס": "פעיל"}}, {"type": "Feature", "geometry": {"type": "Point", "coordinates": [34.870513, 32.075507]}, "properties": {"מזהה": 37, "מפעיל": "סלקום", "דור": "5G", "רשות מקומית": "פתח תקווה", "רחוב": "ז'בוטינסקי", "מספר": 8, "סטטוס": "פעיל"}}, {"type": "Feature", "geometry": {"type": "Point", "coordinates": [34.911625, 32.075437]}, "properties": {"מזהה": 38, "מפעיל": "הוט מובייל", "דור": "3G", "רשות מקומית": "פתח תקווה", "רחוב": "ז'בוטינסקי", "מספר": 31, "סטטוס": "פעיל"}}, {"type": "Feature", "geometry": {"type": "Point", "coordinates": [34.886425, 32.078409]}, "properties": {"מזהה": 39, "מפעיל": "פרטנר", "דור": "3G", "רשות מקומית": "פתח תקווה", "רחוב": "ז'בוטינסקי", "מספר": 120, "סטטוס": "פעיל"}}, {"type": "Feature", "geometry": {"type": "Point", "coordinates": [34.891873, 32.114643]}, "properties": {"מזהה": 40, "מפעיל": "פלאפון", "דור": "5G", "רשות מקומית": "פתח תקווה", "רחוב": "ז'בוטינסקי", "מספר": 104, "סטטוס": "פעיל"}}, {"type": "Feature", "geometry": {"type": "Point", "coordinates": [34.86296, 32.086124]}, "properties": {"מזהה": 41, "מפעיל": "גולן טלקום", "דור": "4G", "רשות מקומית": "פתח תקווה", "רחוב": "ז'בוטינסקי", "מספר": 53, "סטטוס": "פעיל"}}, {"type": "Feature", "geometry": {"type": "Point", "coordinates": [34.901045, 32.089721]}, "properties": {"מזהה": 42, "מפעיל": "סלקום", "דור": "3G", "רשות מקומית": "פתח תקווה", "רחוב": "ז'בוטינסקי", "מספר": 94, "סטטוס": "פעיל"}}, {"type": "Feature", "geometry": {"type": "Point", "coordinates": [34.6652, 31.791758]}, "properties": {"מזהה": 43, "מפעיל": "פלאפון", "דור": "3G", "רשות מקומית": "אשדוד", "רחוב": "הראשונים", "מספר": 69, "סטטוס": "פעיל"}}, {"type": "Feature", "geometry": {"type": "Point", "coordinates": [34.638813, 31.798317]}, "properties": {"מזהה": 44, "מפעיל": "הוט מובייל", "דור": "4G", "רשות מקומית": "אשדוד", "רחוב": "הראשונים", "מספר": 112, "סטטוס": "פעיל"}}, {"type": "Feature", "geometry": {"type": "Point", "coordinates": [34.640088, 31.826796]}, "properties": {"מזהה": 45, "מפעיל": "פרטנר", "דור": "3G", "רשות מקומית": "אשדוד", "רחוב": "הראשונים", "מספר": 84, "סטטוס": "פעיל"}}, {"type": "Feature", "geometry": {"type": "Point", "coordinates": [34.663662, 31.831357]}, "properties": {"מזהה": 46, "מפעיל": "סלקום", "דור": "5G", "רשות מקומית": "אשדוד", "רחוב": "הראשונים", "מספר": 109, "סטטוס": "פעיל"}}, {"type": "Feature", "geometry": {"type": "Point", "coordinates": [34.637885, 31.785583]}, "properties": {"מזהה": 47, "מפעיל": "גולן טלקום", "דור": "4G", "רשות מקומית": "אשדוד", "רחוב": "הראשונים", "מספר": 52, "סטטוס": "פעיל"}}, {"type": "Feature", "geometry": {"type": "Point", "coordinates": [34.623378, 31.825547]}, "properties": {"מזהה": 48, "מפעיל": "סלקום", "דור": "5G", "רשות מקומית": "אשדוד", "רחוב": "הראשונים", "מספר": 34, "סטטוס": "פעיל"}}, {"type": "Feature", "geometry": {"type": "Point", "coordinates": [34.965308, 29.583691]}, "properties": {"מזהה": 49, "מפעיל": "הוט מובייל", "דור": "4G", "רשות מקומית": "אילת", "רחוב": "התמרים", "מספר": 94, "סטטוס": "פעיל"}}, {"type": "Feature", "geometry": {"type": "Point", "coordinates": [34.951546, 29.587825]}, "properties": {"מזהה": 50, "מפעיל": "גולן טלקום", "דור": "3G", "רשות מקומית": "אילת", "רחוב": "התמרים", "מספר": 38, "סטטוס": "פעיל"}}, {"type": "Feature", "geometry": {"type": "Point", "coordinates": [34.921709, 29.541162]}, "properties": {"מזהה": 51, "מפעיל": "פרטנר", "דור": "3G", "רשות מקומית": "אילת", "רחוב": "התמרים", "מספר": 41, "סטטוס": "פעיל"}}, {"type": "Feature", "geometry": {"type": "Point", "coordinates": [34.953251, 29.53153]}, "properties": {"מזהה": 52, "מפעיל": "פרטנר", "דור": "5G", "רשות מקומית": "אילת", "רחוב": "התמרים", "מספר": 68, "סטטוס": "פעיל"}}, {"type": "Feature", "geometry": {"type": "Point", "coordinates": [34.975847, 29.537546]}, "properties": {"מזהה": 53, "מפעיל": "סלקום", "דור": "5G", "רשות מקומית": "אילת", "רחוב": "התמרים", "מספר": 9, "סטטוס": "פעיל"}}, {"type": "Feature", "geometry": {"type": "Point", "coordinates": [34.958713, 29.563802]}, "properties": {"מזהה": 54, "מפעיל": "פלאפון", "דור": "4G", "רשות מקומית": "אילת", "רחוב": "התמרים", "מספר": 114, "סטטוס": "פעיל"}}, {"type": "Feature", "geometry": {"type": "Point", "coordinates": [35.535935, 32.796381]}, "properties": {"מזהה": 55, "מפעיל": "סלקום", "דור": "4G", "רשות מקומית": "טבריה", "רחוב": "הגליל", "מספר": 54, "סטטוס": "פעיל"}}, {"type": "Feature", "geometry": {"type": "Point", "coordinates": [35.535114, 32.801642]}, "properties": {"מזהה": 56, "מפעיל": "הוט מובייל", "דור": "5G", "רשות מקומית": "טבריה", "רחוב": "הגליל", "מספר": 27, "סטטוס": "פעיל"}}, {"type": "Feature", "geometry": {"type": "Point", "coordinates": [35.520051, 32.802384]}, "properties": {"מזהה": 57, "מפעיל": "הוט מובייל", "דור": "4G", "רשות מקומית": "טבריה", "רחוב": "הגליל", "מספר": 86, "סטטוס": "פעיל"}}, {"type": "Feature", "geometry": {"type": "Point", "coordinates": [35.528633, 32.80093]}, "properties": {"מזהה": 58, "מפעיל": "סלקום", "דור": "2G", "רשות מקומית": "טבריה", "רחוב": "הגליל", "מספר": 80, "סטטוס": "פעיל"}}, {"type": "Feature", "geometry": {"type": "Point", "coordinates": [35.560966, 32.822107]}, "properties": {"מזהה": 59, "מפעיל": "סלקום", "דור": "4G", "רשות מקומית": "טבריה", "רחוב": "הגליל", "מספר": 65, "סטטוס": "פעיל"}}, {"type": "Feature", "geometry": {"type": "Point", "coordinates": [35.557196, 32.778112]}, "properties": {"מזהה": 60, "מפעיל": "סלקום", "דור": "5G", "רשות מקומית": "טבריה", "רחוב": "הגליל", "מספר": 48, "סטטוס": "פעיל"}}, {"type": "Feature", "geometry": {"type": "Point", "coordinates": [34.903991, 32.172899]}, "properties": {"מזהה": 61, "מפעיל": "פרטנר", "דור": "5G", "רשות מקומית": "כפר סבא", "רחוב": "ויצמן", "מספר": 79, "סטטוס": "פעיל"}}, {"type": "Feature", "geometry": {"type": "Point", "coordinates": [34.926126, 32.214831]}, "properties": {"מזהה": 62, "מפעיל": "פרטנר", "דור": "2G", "רשות מקומית": "כפר סבא", "רחוב": "ויצמן", "מספר": 105, "סטטוס": "פעיל"}}, {"type": "Feature", "geometry": {"type": "Point", "coordinates": [34.933605, 32.189076]}, "properties": {"מזהה": 63, "מפעיל": "סלקום", "דור": "5G", "רשות מקומית": "כפר סבא", "רחוב": "ויצמן", "מספר": 18, "סטטוס": "פעיל"}}, {"type": "Feature", "geometry": {"type": "Point", "coordinates": [34.931083, 32.171668]}, "properties": {"מזהה": 64, "מפעיל": "פרטנר", "דור": "3G", "רשות מקומית": "כפר סבא", "רחוב": "ויצמן", "מספר": 37, "סטטוס": "פעיל"}}, {"type": "Feature", "geometry": {"type": "Point", "coordinates": [34.920757, 32.19209]}, "properties": {"מזהה": 65, "מפעיל": "פלאפון", "דור": "4G", "רשות מקומית": "כפר סבא", "רחוב": "ויצמן", "מספר": 110, "סטטוס": "פעיל"}}, {"type": "Feature", "geometry": {"type": "Point", "coordinates": [34.907012, 32.171639]}, "properties": {"מזהה": 66, "מפעיל": "סלקום", "דור": "3G", "רשות מקומית": "כפר סבא", "רחוב": "ויצמן", "מספר": 55, "סטטוס": "פעיל"}}, {"type": "Feature", "geometry": {"type": "Point", "coordinates": [34.843945, 32.204561]}, "properties": {"מזהה": 67, "מפעיל": "הוט מובייל", "דור": "5G", "רשות מקומית": "רעננה", "רחוב": "אחוזה", "מספר": 82, "סטטוס": "פעיל"}}, {"type": "Feature", "geometry": {"type": "Point", "coordinates": [34.850995, 32.213588]}, "properties": {"מזהה": 68, "מפעיל": "גולן טלקום", "דור": "4G", "רשות מקומית": "רעננה", "רחוב": "אחוזה", "מספר": 55, "סטטוס": "פעיל"}}, {"type": "Feature", "geometry": {"type": "Point", "coordinates": [34.848012, 32.188454]}, "properties": {"מזהה": 69, "מפעיל": "פלאפון", "דור": "4G", "רשות מקומית": "רעננה", "רחוב": "אחוזה", "מספר": 107, "סטטוס": "פעיל"}}, {"type": "Feature", "geometry": {"type": "Point", "coordinates": [34.874452, 32.176953]}, "properties": {"מזהה": 70, "מפעיל": "גולן טלקום", "דור": "3G", "רשות מקומית": "רעננה", "רחוב": "אחוזה", "מספר": 40, "סטטוס": "פעיל"}}, {"type": "Feature", "geometry": {"type": "Point", "coordinates": [34.897285, 32.176679]}, "properties": {"מזהה": 71, "מפעיל": "סלקום", "דור": "5G", "רשות מקומית": "רעננה", "רחוב": "אחוזה", "מספר": 27, "סטטוס": "פעיל"}}, {"type": "Feature", "geometry": {"type": "Point", "coordinates": [34.881316, 32.195724]}, "properties": {"מזהה": 72, "מפעיל": "הוט מובייל", "דור": "5G", "רשות מקומית": "רעננה", "רחוב": "אחוזה", "מספר": 114, "סטטוס": "פעיל"}}, {"type": "Feature", "geometry": {"type": "Point", "coordinates": [35.03793, 31.919383]}, "properties": {"מזהה": 73, "מפעיל": "פלאפון", "דור": "5G", "רשות מקומית": "מודיעין", "רחוב": "עמק דותן", "מספר": 31, "סטטוס": "פעיל"}}, {"type": "Feature", "geometry": {"type": "Point", "coordinates": [35.038072, 31.918776]}, "properties": {"מזהה": 74, "מפעיל": "פלאפון", "דור": "5G", "רשות מקומית": "מודיעין", "רחוב": "עמק דותן", "מספר": 4, "סטטוס": "פעיל"}}, {"type": "Feature", "geometry": {"type": "Point", "coordinates": [35.034969, 31.877662]}, "properties": {"מזהה": 75, "מפעיל": "גולן טלקום", "דור": "5G", "רשות מקומית": "מודיעין", "רחוב": "עמק דותן", "מספר": 111, "סטטוס": "פעיל"}}, {"type": "Feature", "geometry": {"type": "Point", "coordinates": [34.99439, 31.911003]}, "properties": {"מזהה": 76, "מפעיל": "פלאפון", "דור": "5G", "רשות מקומית": "מודיעין", "רחוב": "עמק דותן", "מספר": 14, "סטטוס": "פעיל"}}, {"type": "Feature", "geometry": {"type": "Point", "coordinates": [34.981823, 31.889853]}, "properties": {"מזהה": 77, "מפעיל": "גולן טלקום", "דור": "4G", "רשות מקומית": "מודיעין", "רחוב": "עמק דותן", "מספר": 105, "סטטוס": "פעיל"}}, {"type": "Feature", "geometry": {"type": "Point", "coordinates": [35.00048, 31.922007]}, "properties": {"מזהה": 78, "מפעיל": "פלאפון", "דור": "4G", "רשות מקומית": "מודיעין", "רחוב": "עמק דותן", "מספר": 85, "סטטוס": "פעיל"}}, {"type": "Feature", "geometry": {"type": "Point", "coordinates": [34.909296, 32.415588]}, "properties": {"מזהה": 79, "מפעיל": "סלקום", "דור": "5G", "רשות מקומית": "חדרה", "רחוב": "הנשיא", "מספר": 36, "סטטוס": "פעיל"}}, {"type": "Feature", "geometry": {"type": "Point", "coordinates": [34.920164, 32.425069]}, "properties": {"מזהה": 80, "מפעיל": "פרטנר", "דור": "4G", "רשות מקומית": "חדרה", "רחוב": "הנשיא", "מספר": 4, "סטטוס": "פעיל"}}, {"type": "Feature", "geometry": {"type": "Point", "coordinates": [34.947824, 32.410921]}, "properties": {"מזהה": 81, "מפעיל": "פלאפון", "דור": "4G", "רשות מקומית": "חדרה", "רחוב": "הנשיא", "מספר": 34, "סטטוס": "פעיל"}}, {"type": "Feature", "geometry": {"type": "Point", "coordinates": [34.925394, 32.406295]}, "properties": {"מזהה": 82, "מפעיל": "הוט מובייל", "דור": "5G", "רשות מקומית": "חדרה", "רחוב": "הנשיא", "מספר": 41, "סטטוס": "פעיל"}}, {"type": "Feature", "geometry": {"type": "Point", "coordinates": [34.948654, 32.430184]}, "properties": {"מזהה": 83, "מפעיל": "סלקום", "דור": "4G", "רשות מקומית": "חדרה", "רחוב": "הנשיא", "מספר": 74, "סטטוס": "פעיל"}}, {"type": "Feature", "geometry": {"type": "Point", "coordinates": [34.892263, 32.415405]}, "properties": {"מזהה": 84, "מפעיל": "גולן טלקום", "דור": "2G", "רשות מקומית": "חדרה", "רחוב": "הנשיא", "מספר": 119, "סטטוס": "פעיל"}}, {"type": "Feature", "geometry": {"type": "Point", "coordinates": [35.300911, 32.625991]}, "properties": {"מזהה": 85, "מפעיל": "פלאפון", "דור": "4G", "רשות מקומית": "עפולה", "רחוב": "ירושלים", "מספר": 9, "סטטוס": "פעיל"}}, {"type": "Feature", "geometry": {"type": "Point", "coordinates": [35.314946, 32.634532]}, "properties": {"מזהה": 86, "מפעיל": "פרטנר", "דור": "4G", "רשות מקומית": "עפולה", "רחוב": "ירושלים", "מספר": 109, "סטטוס": "פעיל"}}, {"type": "Feature", "geometry": {"type": "Point", "coordinates": [35.313703, 32.585078]}, "properties": {"מזהה": 87, "מפעיל": "פרטנר", "דור": "4G", "רשות מקומית": "עפולה", "רחוב": "ירושלים", "מספר": 53, "סטטוס": "פעיל"}}, {"type": "Feature", "geometry": {"type": "Point", "coordinates": [35.301533, 32.597171]}, "properties": {"מזהה": 88, "מפעיל": "פרטנר", "דור": "3G", "רשות מקומית": "עפולה", "רחוב": "ירושלים", "מספר": 54, "סטטוס": "פעיל"}}, {"type": "Feature", "geometry": {"type": "Point", "coordinates": [35.282449, 32.617496]}, "properties": {"מזהה": 89, "מפעיל": "פלאפון", "דור": "4G", "רשות מקומית": "עפולה", "רחוב": "ירושלים", "מספר": 39, "סטטוס": "פעיל"}}, {"type": "Feature", "geometry": {"type": "Point", "coordinates": [35.309724, 32.601965]}, "properties": {"מזהה": 90, "מפעיל": "הוט מובייל", "דור": "4G", "רשות מקומית": "עפולה", "רחוב": "ירושלים", "מספר": 56, "סטטוס": "פעיל"}}]}